QIANFAN-41              
1 62242U 24232F   26013.60977130  .00000041  00000+0  45030-4 0  9994
2 62242  89.0000  37.9781 0015944  98.6816 261.6142 13.50982583103551
QIANFAN-42              
1 62243U 24232G   26013.59369598  .00000108  00000+0  40385-4 0  9998
2 62243  88.9994  33.7145 0014334 349.2260  10.8623 14.24506107105905
QIANFAN-43              
1 62244U 24232H   26013.60563923  .00000044  00000+0  49047-4 0  9992
2 62244  89.0005  38.0452 0017447 103.4312 256.8785 13.50981572 72169
QIANFAN-44              
1 62245U 24232J   26013.59329253  .00000036  00000+0  36950-4 0  9997
2 62245  89.0003  37.8567 0015672 100.6936 259.5981 13.50983832103637
QIANFAN-45              
1 62246U 24232K   26013.56043648  .00000038  00000+0  40720-4 0  9998
2 62246  89.0007  38.0077 0016339 100.5116 259.7877 13.50979812103551
QIANFAN-46              
1 62247U 24232L   26013.58507456  .00000038  00000+0  40625-4 0  9997
2 62247  89.0003  38.0730 0016355 105.3167 254.9793 13.50981786103514
QIANFAN-47              
1 62248U 24232M   26013.58922711  .00000033  00000+0  32778-4 0  9998
2 62248  88.9999  38.0042 0016794 104.5878 255.7137 13.50981926103540
QIANFAN-48              
1 62249U 24232N   26013.55214521  .00000029  00000+0  26217-4 0  9995
2 62249  89.0003  38.0110 0019026 107.2243 253.0993 13.50983399103549
